H1 CPF  1  DLR 2021 11 02 10  8062 technosat            
H2  1704205 6203    42829 2021 11 02 00 00 00 2021 11 09 00 00 00    60 1 1  0 0 0
H9
10 0 59524  43200.000000  0       3630238.249      -5446283.205       2372544.771
10 0 59524  43260.000000  0       3461624.070      -5356424.197       2790079.238
10 0 59524  43320.000000  0       3279245.035      -5242348.823       3195714.223
10 0 59524  43380.000000  0       3084083.939      -5104424.308       3587720.050
10 0 59524  43440.000000  0       2877174.620      -4943128.751       3964425.949
10 0 59524  43500.000000  0       2659596.476      -4759049.370       4324227.384
10 0 59524  43560.000000  0       2432468.740      -4552880.154       4665593.061
10 0 59524  43620.000000  0       2196944.618      -4325418.989       4987071.465
10 0 59524  43680.000000  0       1954205.393      -4077564.353       5287297.053
10 0 59524  43740.000000  0       1705454.383      -3810311.477       5564996.123
10 0 59524  43800.000000  0       1451910.835      -3524748.005       5818992.133
10 0 59524  43860.000000  0       1194803.844      -3222049.269       6048210.535
10 0 59524  43920.000000  0        935366.304      -2903473.198       6251683.127
10 0 59524  43980.000000  0        674828.939      -2570354.870       6428551.974
10 0 59524  44040.000000  0        414414.395      -2224100.664       6578072.804
10 0 59524  44100.000000  0        155331.501      -1866182.173       6699617.885
10 0 59524  44160.000000  0       -101230.329      -1498129.857       6792678.546
10 0 59524  44220.000000  0       -354106.585      -1121526.306       6856867.191
10 0 59524  44280.000000  0       -602162.929       -737999.292       6891918.702
10 0 59524  44340.000000  0       -844300.272       -349214.671       6897691.411
10 0 59524  44400.000000  0      -1079459.666         43130.935       6874167.545
10 0 59524  44460.000000  0      -1306626.925        437317.592       6821453.182
10 0 59524  44520.000000  0      -1524836.975        831609.641       6739777.685
10 0 59524  44580.000000  0      -1733177.940       1224263.341       6629492.683
10 0 59524  44640.000000  0      -1930794.980       1613534.608       6491070.560
10 0 59524  44700.000000  0      -2116893.786       1997686.774       6325102.433
10 0 59524  44760.000000  0      -2290743.766       2374998.359       6132295.703
10 0 59524  44820.000000  0      -2451680.922       2743770.860       5913471.101
10 0 59524  44880.000000  0      -2599110.351       3102336.419       5669559.265
10 0 59524  44940.000000  0      -2732508.496       3449065.429       5401596.950
10 0 59524  45000.000000  0      -2851425.020       3782374.082       5110722.692
10 0 59524  45060.000000  0      -2955484.294       4100731.704       4798172.039
10 0 59524  45120.000000  0      -3044386.517       4402667.923       4465272.368
10 0 59524  45180.000000  0      -3117908.461       4686779.613       4113437.302
10 0 59524  45240.000000  0      -3175903.849       4951737.584       3744160.705
10 0 59524  45300.000000  0      -3218303.317       5196292.947       3359010.304
10 0 59524  45360.000000  0      -3245113.992       5419283.121       2959620.967
10 0 59524  45420.000000  0      -3256418.710       5619637.472       2547687.706
10 0 59524  45480.000000  0      -3252374.871       5796382.527       2124958.366
10 0 59524  45540.000000  0      -3233212.895       5948646.747       1693226.114
10 0 59524  45600.000000  0      -3199234.319       6075664.901       1254321.740
10 0 59524  45660.000000  0      -3150809.547       6176781.951        810105.731
10 0 59524  45720.000000  0      -3088375.261       6251456.403        362460.197
10 0 59524  45780.000000  0      -3012431.520       6299263.109        -86719.300
10 0 59524  45840.000000  0      -2923538.588       6319895.522       -535531.972
10 0 59524  45900.000000  0      -2822313.447       6313167.391       -982080.077
10 0 59524  45960.000000  0      -2709426.015       6279013.851      -1424477.201
10 0 59524  46020.000000  0      -2585595.072       6217491.804      -1860856.478
10 0 59524  46080.000000  0      -2451583.968       6128779.686      -2289378.462
10 0 59524  46140.000000  0      -2308196.222       6013176.807      -2708238.849
10 0 59524  46200.000000  0      -2156270.964       5871102.146      -3115676.009
10 0 59524  46260.000000  0      -1996678.271       5703092.619      -3509978.358
10 0 59524  46320.000000  0      -1830314.399       5509800.741      -3889491.479
10 0 59524  46380.000000  0      -1658096.946       5291991.745      -4252624.884
10 0 59524  46440.000000  0      -1480959.992       5050540.266      -4597858.425
10 0 59524  46500.000000  0      -1299849.233       4786426.609      -4923748.385
10 0 59524  46560.000000  0      -1115717.126       4500732.572      -5228933.256
10 0 59524  46620.000000  0       -929518.046       4194636.825      -5512139.166
10 0 59524  46680.000000  0       -742203.497       3869409.881      -5772184.913
10 0 59524  46740.000000  0       -554717.399       3526408.658      -6007986.584
10 0 59524  46800.000000  0       -367991.478       3167070.696      -6218561.742
10 0 59524  46860.000000  0       -182940.803       2792908.049      -6403033.128
10 0 59524  46920.000000  0          -459.479       2405500.982      -6560631.944
10 0 59524  46980.000000  0        178583.492       2006491.421      -6690700.804
10 0 59524  47040.000000  0        353348.184       1597576.112      -6792696.294
10 0 59524  47100.000000  0        523027.574       1180499.516      -6866191.034
10 0 59524  47160.000000  0        686851.145        757046.601      -6910875.285
10 0 59524  47220.000000  0        844088.288        329035.421      -6926558.225
10 0 59524  47280.000000  0        994051.464       -101690.512      -6913168.725
10 0 59524  47340.000000  0       1136099.127       -533269.941      -6870755.645
10 0 59524  47400.000000  0       1269638.410       -963831.610      -6799487.718
10 0 59524  47460.000000  0       1394127.549      -1391502.115      -6699653.050
10 0 59524  47520.000000  0       1509078.063      -1814413.796      -6571658.198
10 0 59524  47580.000000  0       1614056.728      -2230712.683      -6416026.846
10 0 59524  47640.000000  0       1708687.235      -2638566.458      -6233398.010
10 0 59524  47700.000000  0       1792651.567      -3036172.447      -6024523.873
10 0 59524  47760.000000  0       1865691.116      -3421765.666      -5790267.135
10 0 59524  47820.000000  0       1927607.482      -3793626.755      -5531597.782
10 0 59524  47880.000000  0       1978262.997      -4150089.704      -5249589.389
10 0 59524  47940.000000  0       2017580.920      -4489549.384      -4945415.054
10 0 59524  48000.000000  0       2045545.357      -4810468.951      -4620342.927
10 0 59524  48060.000000  0       2062200.884      -5111387.056      -4275731.330
10 0 59524  48120.000000  0       2067651.846      -5390924.854      -3913023.400
10 0 59524  48180.000000  0       2062061.338      -5647792.698      -3533741.309
10 0 59524  48240.000000  0       2045649.876      -5880796.482      -3139480.086
10 0 59524  48300.000000  0       2018693.775      -6088843.639      -2731901.080
10 0 59524  48360.000000  0       1981523.200      -6270948.733      -2312724.995
10 0 59524  48420.000000  0       1934519.928      -6426238.475      -1883724.553
10 0 59524  48480.000000  0       1878114.848      -6553956.236      -1446717.019
10 0 59524  48540.000000  0       1812785.249      -6653466.299      -1003556.465
10 0 59524  48600.000000  0       1739051.845      -6724257.427       -556125.509
10 0 59524  48660.000000  0       1657475.473      -6765945.545       -106327.014
10 0 59524  48720.000000  0       1568653.617      -6778275.945        343924.144
10 0 59524  48780.000000  0       1473216.787      -6761125.084        792709.468
10 0 59524  48840.000000  0       1371824.653      -6714501.693       1238115.460
10 0 59524  48900.000000  0       1265162.040      -6638547.053       1678242.255
10 0 59524  48960.000000  0       1153934.857      -6533534.508       2111212.084
10 0 59524  49020.000000  0       1038865.896      -6399868.479       2535177.575
10 0 59524  49080.000000  0        920690.506      -6238082.785       2948329.999
10 0 59524  49140.000000  0        800152.241      -6048838.307       3348907.231
10 0 59524  49200.000000  0        677998.518      -5832920.060       3735201.498
10 0 59524  49260.000000  0        554976.305      -5591233.665       4105566.840
10 0 59524  49320.000000  0        431827.832      -5324801.272       4458426.276
10 0 59524  49380.000000  0        309286.349      -5034756.882       4792278.664
10 0 59524  49440.000000  0        188071.974      -4722341.123       5105705.123
10 0 59524  49500.000000  0         68887.696      -4388895.591       5397375.053
10 0 59524  49560.000000  0        -47584.469      -4035856.725       5666051.787
10 0 59524  49620.000000  0       -160687.187      -3664749.207       5910597.773
10 0 59524  49680.000000  0       -269791.338      -3277178.977       6129979.213
10 0 59524  49740.000000  0       -374299.367      -2874825.984       6323270.189
10 0 59524  49800.000000  0       -473648.410      -2459436.693       6489656.337
10 0 59524  49860.000000  0       -567313.191      -2032816.343       6628438.101
10 0 59524  49920.000000  0       -654808.683      -1596820.941       6739033.503
10 0 59524  49980.000000  0       -735692.526      -1153349.048       6820980.453
10 0 59524  50040.000000  0       -809567.197       -704333.357       6873938.544
10 0 59524  50100.000000  0       -876081.929       -251732.146       6897690.311
10 0 59524  50160.000000  0       -934934.341        202479.323       6892141.973
10 0 59524  50220.000000  0       -985871.766        656317.496       6857323.716
10 0 59524  50280.000000  0      -1028692.305       1107799.246       6793389.425
10 0 59524  50340.000000  0      -1063245.580       1554950.541       6700615.950
99
